GLOBALSTAR M067         
1 32263U 07048A   24237.23215260 -.00000066  00000+0  23380-3 0  9995
2 32263  51.9712 184.8343 0001225  60.5008  79.4428 12.40652909772865
GLOBALSTAR M070         
1 32264U 07048B   24236.48249641 -.00000049  00000+0  30491-3 0  9994
2 32264  51.9768 315.4226 0000826 132.6795 241.4764 12.62298235776072
GLOBALSTAR M066         
1 32265U 07048C   24236.59446731 -.00000059  00000+0  25721-3 0  9997
2 32265  51.9661 177.8362 0001168 288.0641 242.9768 12.58440273778339
GLOBALSTAR M068         
1 32266U 07048D   24237.19820774 -.00000042  00000+0  34354-3 0  9992
2 32266  51.9883 127.5613 0000507 154.9208 343.9953 12.62797354780323
GLOBALSTAR M079         
1 37188U 10054A   24237.22754007 -.00000069  00000+0  19400-3 0  9994
2 37188  52.0062 323.7819 0000534  85.1710 293.2735 12.62263087639636
GLOBALSTAR M074         
1 37189U 10054B   24236.54001707 -.00000061  00000+0  23966-3 0  9995
2 37189  52.0041 325.2425 0000607 112.9739 260.1160 12.62271762639471
GLOBALSTAR M076         
1 37190U 10054C   24237.20098049 -.00000068  00000+0  19833-3 0  9991
2 37190  52.0049 323.3773 0000923  90.0991 286.0434 12.62255631639639
GLOBALSTAR M077         
1 37191U 10054D   24236.39498928 -.00000075  00000+0  15871-3 0  9997
2 37191  52.0066 282.6005 0000439 120.7907 252.1974 12.62262999639542
